0 SL-18 DEB
1 35356U 93014BF  13281.16434699  .00005417  00000-0  14131-2 0  2774
2 35356 075.7501 101.4711 0145674 082.7692 278.9801 14.43420632378445
0 SL-18 DEB
1 35356U 93014BF  13282.82780406  .00005452  00000-0  14275-2 0  2787
2 35356 075.7626 098.6886 0143241 080.0167 281.7726 14.43440217378684
0 SL-18 DEB
1 35356U 93014BF  13283.79813068  .00018017  00000-0  46909-2 0  2808
2 35356 075.7559 097.0774 0144476 076.8675 284.9062 14.43476541378829
0 SL-18 DEB
1 35356U 93014BF  13283.79813424  .00005633  00000-0  14781-2 0  2818
2 35356 075.7639 097.0698 0141805 078.0218 283.7664 14.43454378378822
0 SL-18 DEB
1 35356U 93014BF  13286.15460879  .00006314  00000-0  16370-2 0  2838
2 35356 075.7546 093.1713 0147955 070.9881 290.7241 14.43493441379164
0 SL-18 DEB
1 35356U 93014BF  13286.77837495  .00007380  00000-0  19233-2 0  2844
2 35356 075.7574 092.1170 0144418 069.3501 292.4579 14.43515608379256
0 SL-18 DEB
1 35356U 93014BF  13289.75847438  .00007821  00000-0  20367-2 0  2854
2 35356 075.7546 087.1628 0144173 060.9842 300.6635 14.43568202379680
0 SL-18 DEB
1 35356U 93014BF  13291.76824324  .00007938  00000-0  20622-2 0  2861
2 35356 075.7559 083.8311 0145087 056.1275 305.3780 14.43601987379971
0 SL-18 DEB
1 35356U 93014BF  13292.11474967  .00008043  00000-0  20883-2 0  2873
2 35356 075.7521 083.2494 0145325 055.3357 306.1785 14.43609748380028
0 SL-18 DEB
1 35356U 93014BF  13293.08496130  .00008170  00000-0  21172-2 0  2880
2 35356 075.7530 081.6414 0146141 054.0729 307.4393 14.43628303380160
0 SL-18 DEB
1 35356U 93014BF  13295.09465212  .00008757  00000-0  22724-2 0  2896
2 35356 075.7581 078.3044 0144728 051.4054 310.1687 14.43671658380459
